[{"OBJECT_NAME":"STARLINK-33817","OBJECT_ID":"2025-076Q","EPOCH":"2025-12-23T02:48:55.859616","MEAN_MOTION":15.27602721,"ECCENTRICITY":0.00021086,"INCLINATION":42.9989,"RA_OF_ASC_NODE":33.7878,"ARG_OF_PERICENTER":275.3307,"MEAN_ANOMALY":84.7304,"EPHEMERIS_TYPE":0,"CLASSIFICATION_TYPE":"U","NORAD_CAT_ID":63583,"ELEMENT_SET_NO":999,"REV_AT_EPOCH":4011,"BSTAR":0.0004633312,"MEAN_MOTION_DOT":0.00012518,"MEAN_MOTION_DDOT":0},{"OBJECT_NAME":"STARLINK-33820","OBJECT_ID":"2025-076R","EPOCH":"2025-12-22T12:30:24.482016","MEAN_MOTION":15.27631315,"ECCENTRICITY":0.00016429,"INCLINATION":43.0031,"RA_OF_ASC_NODE":37.054,"ARG_OF_PERICENTER":275.0202,"MEAN_ANOMALY":85.0462,"EPHEMERIS_TYPE":0,"CLASSIFICATION_TYPE":"U","NORAD_CAT_ID":63584,"ELEMENT_SET_NO":999,"REV_AT_EPOCH":4003,"BSTAR":0.0010170086,"MEAN_MOTION_DOT":0.00027874,"MEAN_MOTION_DDOT":0},{"OBJECT_NAME":"STARLINK-33813","OBJECT_ID":"2025-076S","EPOCH":"2025-12-23T04:13:50.814912","MEAN_MOTION":15.27577515,"ECCENTRICITY":0.00013225,"INCLINATION":42.9998,"RA_OF_ASC_NODE":33.3692,"ARG_OF_PERICENTER":257.3183,"MEAN_ANOMALY":102.7521,"EPHEMERIS_TYPE":0,"CLASSIFICATION_TYPE":"U","NORAD_CAT_ID":63585,"ELEMENT_SET_NO":999,"REV_AT_EPOCH":4013,"BSTAR":0.0014481541,"MEAN_MOTION_DOT":0.000398,"MEAN_MOTION_DDOT":0},{"OBJECT_NAME":"STARLINK-33834","OBJECT_ID":"2025-076T","EPOCH":"2025-12-23T03:29:38.505984","MEAN_MOTION":15.27561359,"ECCENTRICITY":0.00014732,"INCLINATION":43.0007,"RA_OF_ASC_NODE":34.0049,"ARG_OF_PERICENTER":256.8685,"MEAN_ANOMALY":103.2002,"EPHEMERIS_TYPE":0,"CLASSIFICATION_TYPE":"U","NORAD_CAT_ID":63586,"ELEMENT_SET_NO":999,"REV_AT_EPOCH":4012,"BSTAR":0.00048003615,"MEAN_MOTION_DOT":0.00012963,"MEAN_MOTION_DDOT":0},{"OBJECT_NAME":"STARLINK-33830","OBJECT_ID":"2025-076U","EPOCH":"2025-12-23T03:25:56.798400","MEAN_MOTION":15.27562528,"ECCENTRICITY":3.068e-5,"INCLINATION":42.9974,"RA_OF_ASC_NODE":33.9856,"ARG_OF_PERICENTER":223.5028,"MEAN_ANOMALY":136.58,"EPHEMERIS_TYPE":0,"CLASSIFICATION_TYPE":"U","NORAD_CAT_ID":63587,"ELEMENT_SET_NO":999,"REV_AT_EPOCH":4012,"BSTAR":0.00096128633,"MEAN_MOTION_DOT":0.00026271,"MEAN_MOTION_DDOT":0},{"OBJECT_NAME":"STARLINK-33651","OBJECT_ID":"2025-076V","EPOCH":"2025-12-23T03:27:48.672576","MEAN_MOTION":15.27568111,"ECCENTRICITY":0.00013073,"INCLINATION":43.0057,"RA_OF_ASC_NODE":33.9952,"ARG_OF_PERICENTER":266.3485,"MEAN_ANOMALY":93.7217,"EPHEMERIS_TYPE":0,"CLASSIFICATION_TYPE":"U","NORAD_CAT_ID":63588,"ELEMENT_SET_NO":999,"REV_AT_EPOCH":4012,"BSTAR":0.0011643853,"MEAN_MOTION_DOT":0.00031906,"MEAN_MOTION_DDOT":0},{"OBJECT_NAME":"STARLINK-33788","OBJECT_ID":"2025-076W","EPOCH":"2025-12-22T20:01:02.731296","MEAN_MOTION":15.27618208,"ECCENTRICITY":0.00031728,"INCLINATION":43.0041,"RA_OF_ASC_NODE":35.9689,"ARG_OF_PERICENTER":273.0679,"MEAN_ANOMALY":86.981,"EPHEMERIS_TYPE":0,"CLASSIFICATION_TYPE":"U","NORAD_CAT_ID":63589,"ELEMENT_SET_NO":999,"REV_AT_EPOCH":4007,"BSTAR":0.00078828542,"MEAN_MOTION_DOT":0.0002152,"MEAN_MOTION_DDOT":0},{"OBJECT_NAME":"STARLINK-33805","OBJECT_ID":"2025-076X","EPOCH":"2025-12-23T04:06:38.991168","MEAN_MOTION":15.27575401,"ECCENTRICITY":0.00013823,"INCLINATION":43.0036,"RA_OF_ASC_NODE":34.1881,"ARG_OF_PERICENTER":270.4895,"MEAN_ANOMALY":89.5798,"EPHEMERIS_TYPE":0,"CLASSIFICATION_TYPE":"U","NORAD_CAT_ID":63590,"ELEMENT_SET_NO":999,"REV_AT_EPOCH":4012,"BSTAR":0.00066788532,"MEAN_MOTION_DOT":0.00018159,"MEAN_MOTION_DDOT":0},{"OBJECT_NAME":"STARLINK-33702","OBJECT_ID":"2025-076Y","EPOCH":"2025-12-23T03:00:01.497312","MEAN_MOTION":15.27634596,"ECCENTRICITY":0.00011734,"INCLINATION":42.996,"RA_OF_ASC_NODE":33.8428,"ARG_OF_PERICENTER":280.3387,"MEAN_ANOMALY":79.7332,"EPHEMERIS_TYPE":0,"CLASSIFICATION_TYPE":"U","NORAD_CAT_ID":63591,"ELEMENT_SET_NO":999,"REV_AT_EPOCH":4012,"BSTAR":0.00085810574,"MEAN_MOTION_DOT":0.00023466,"MEAN_MOTION_DDOT":0},{"OBJECT_NAME":"STARLINK-33666","OBJECT_ID":"2025-076Z","EPOCH":"2025-12-23T03:44:26.978784","MEAN_MOTION":15.2756578,"ECCENTRICITY":4.36e-6,"INCLINATION":42.9991,"RA_OF_ASC_NODE":34.0772,"ARG_OF_PERICENTER":331.0307,"MEAN_ANOMALY":29.0542,"EPHEMERIS_TYPE":0,"CLASSIFICATION_TYPE":"U","NORAD_CAT_ID":63592,"ELEMENT_SET_NO":999,"REV_AT_EPOCH":4012,"BSTAR":0.0010970826,"MEAN_MOTION_DOT":0.00030037,"MEAN_MOTION_DDOT":0},{"OBJECT_NAME":"STARLINK-33723","OBJECT_ID":"2025-076AA","EPOCH":"2025-12-23T03:09:17.460576","MEAN_MOTION":15.27586849,"ECCENTRICITY":4.452e-5,"INCLINATION":42.99,"RA_OF_ASC_NODE":33.8893,"ARG_OF_PERICENTER":152.8846,"MEAN_ANOMALY":207.2028,"EPHEMERIS_TYPE":0,"CLASSIFICATION_TYPE":"U","NORAD_CAT_ID":63593,"ELEMENT_SET_NO":999,"REV_AT_EPOCH":4012,"BSTAR":0.0014618391,"MEAN_MOTION_DOT":0.00040193,"MEAN_MOTION_DDOT":0},{"OBJECT_NAME":"STARLINK-33791","OBJECT_ID":"2025-076AB","EPOCH":"2025-12-23T03:48:08.732160","MEAN_MOTION":15.27565064,"ECCENTRICITY":4.212e-5,"INCLINATION":42.9987,"RA_OF_ASC_NODE":34.0927,"ARG_OF_PERICENTER":271.7759,"MEAN_ANOMALY":88.3044,"EPHEMERIS_TYPE":0,"CLASSIFICATION_TYPE":"U","NORAD_CAT_ID":63594,"ELEMENT_SET_NO":999,"REV_AT_EPOCH":4012,"BSTAR":0.00014537048,"MEAN_MOTION_DOT":3.739e-5,"MEAN_MOTION_DDOT":0},{"OBJECT_NAME":"STARLINK-33831","OBJECT_ID":"2025-076AC","EPOCH":"2025-12-23T03:14:49.648704","MEAN_MOTION":15.27579327,"ECCENTRICITY":3.669e-5,"INCLINATION":42.9953,"RA_OF_ASC_NODE":33.8681,"ARG_OF_PERICENTER":67.0306,"MEAN_ANOMALY":293.0584,"EPHEMERIS_TYPE":0,"CLASSIFICATION_TYPE":"U","NORAD_CAT_ID":63595,"ELEMENT_SET_NO":999,"REV_AT_EPOCH":4012,"BSTAR":0.0010461537,"MEAN_MOTION_DOT":0.00028637,"MEAN_MOTION_DDOT":0},{"OBJECT_NAME":"STARLINK-33879","OBJECT_ID":"2025-083A","EPOCH":"2025-12-23T06:11:41.875584","MEAN_MOTION":15.27565557,"ECCENTRICITY":0.00013763,"INCLINATION":42.9997,"RA_OF_ASC_NODE":77.2028,"ARG_OF_PERICENTER":273.5136,"MEAN_ANOMALY":86.5558,"EPHEMERIS_TYPE":0,"CLASSIFICATION_TYPE":"U","NORAD_CAT_ID":63634,"ELEMENT_SET_NO":999,"REV_AT_EPOCH":3837,"BSTAR":-0.00094719392,"MEAN_MOTION_DOT":-0.00026223,"MEAN_MOTION_DDOT":0},{"OBJECT_NAME":"STARLINK-33854","OBJECT_ID":"2025-083B","EPOCH":"2025-12-22T15:03:15.830784","MEAN_MOTION":15.2761897,"ECCENTRICITY":0.00011787,"INCLINATION":43.0016,"RA_OF_ASC_NODE":80.2086,"ARG_OF_PERICENTER":244.6848,"MEAN_ANOMALY":115.3881,"EPHEMERIS_TYPE":0,"CLASSIFICATION_TYPE":"U","NORAD_CAT_ID":63635,"ELEMENT_SET_NO":999,"REV_AT_EPOCH":3828,"BSTAR":0.0016024426,"MEAN_MOTION_DOT":0.0004415,"MEAN_MOTION_DDOT":0},{"OBJECT_NAME":"STARLINK-33864","OBJECT_ID":"2025-083C","EPOCH":"2025-12-23T06:17:15.760608","MEAN_MOTION":15.27561256,"ECCENTRICITY":5.93e-5,"INCLINATION":42.9948,"RA_OF_ASC_NODE":77.2317,"ARG_OF_PERICENTER":274.7249,"MEAN_ANOMALY":85.3535,"EPHEMERIS_TYPE":0,"CLASSIFICATION_TYPE":"U","NORAD_CAT_ID":63636,"ELEMENT_SET_NO":999,"REV_AT_EPOCH":3840,"BSTAR":0.00039144484,"MEAN_MOTION_DOT":0.00010519,"MEAN_MOTION_DDOT":0}]
