STARLINK-33817          
1 63583U 25076Q   25357.11731319  .00012518  00000+0  46333-3 0  9991
2 63583  42.9989  33.7878 0002108 275.3307  84.7304 15.27602721 40117
STARLINK-33820          
1 63584U 25076R   25356.52111669  .00027874  00000+0  10170-2 0  9996
2 63584  43.0031  37.0540 0001642 275.0202  85.0462 15.27631315 40035
STARLINK-33813          
1 63585U 25076S   25357.17628258  .00039800  00000+0  14482-2 0  9998
2 63585  42.9998  33.3692 0001322 257.3183 102.7521 15.27577515 40134
STARLINK-33834          
1 63586U 25076T   25357.14558456  .00012963  00000+0  48004-3 0  9997
2 63586  43.0007  34.0049 0001473 256.8685 103.2002 15.27561359 40128
STARLINK-33830          
1 63587U 25076U   25357.14301850  .00026271  00000+0  96129-3 0  9990
2 63587  42.9974  33.9856 0000306 223.5028 136.5800 15.27562528 40124
STARLINK-33651          
1 63588U 25076V   25357.14431334  .00031906  00000+0  11644-2 0  9991
2 63588  43.0057  33.9952 0001307 266.3485  93.7217 15.27568111 40120
STARLINK-33788          
1 63589U 25076W   25356.83405939  .00021520  00000+0  78829-3 0  9999
2 63589  43.0041  35.9689 0003172 273.0679  86.9810 15.27618208 40075
STARLINK-33805          
1 63590U 25076X   25357.17128462  .00018159  00000+0  66789-3 0  9998
2 63590  43.0036  34.1881 0001382 270.4895  89.5798 15.27575401 40125
STARLINK-33702          
1 63591U 25076Y   25357.12501733  .00023466  00000+0  85811-3 0  9994
2 63591  42.9960  33.8428 0001173 280.3387  79.7332 15.27634596 40123
STARLINK-33666          
1 63592U 25076Z   25357.15586781  .00030037  00000+0  10971-2 0  9990
2 63592  42.9991  34.0772 0000043 331.0307  29.0542 15.27565780 40123
STARLINK-33723          
1 63593U 25076AA  25357.13145209  .00040193  00000+0  14618-2 0  9991
2 63593  42.9900  33.8893 0000445 152.8846 207.2028 15.27586849 40126
STARLINK-33791          
1 63594U 25076AB  25357.15843440  .00003739  00000+0  14537-3 0  9992
2 63594  42.9987  34.0927 0000421 271.7759  88.3044 15.27565064 40123
STARLINK-33831          
1 63595U 25076AC  25357.13529686  .00028637  00000+0  10462-2 0  9990
2 63595  42.9953  33.8681 0000366  67.0306 293.0584 15.27579327 40124
STARLINK-33879          
1 63634U 25083A   25357.25812356 -.00026223  00000+0 -94719-3 0  9993
2 63634  42.9997  77.2028 0001376 273.5136  86.5558 15.27565557 38370
STARLINK-33854          
1 63635U 25083B   25356.62726656  .00044150  00000+0  16024-2 0  9990
2 63635  43.0016  80.2086 0001178 244.6848 115.3881 15.27618970 38280
STARLINK-33864          
1 63636U 25083C   25357.26198797  .00010519  00000+0  39144-3 0  9992
2 63636  42.9948  77.2317 0000593 274.7249  85.3535 15.27561256 38405
